start=new Date('2022-04-13T00:00:00.000Z').valueOf();
sats=[{"MEAN_MOTION_DDOT":"0.0000000000000","REV_AT_EPOCH":"364","SEMIMAJOR_AXIS":"6794.100","APOAPSIS":"417.189","SITE":"AFETR","MEAN_ELEMENT_THEORY":"SGP4","EPHEMERIS_TYPE":"0","CLASSIFICATION_TYPE":"U","ECCENTRICITY":"0.00018020","CENTER_NAME":"EARTH","TIME_SYSTEM":"UTC","DECAY_DATE":null,"TLE_LINE1":"1 51134U 22005AG  22102.91667824 -.00325981  00000-0 -58978-2 0  9992","PERIAPSIS":"414.740","OBJECT_ID":"2022-005AG","FILE":"3398892","PERIOD":"92.888","OBJECT_TYPE":"PAYLOAD","REF_FRAME":"TEME","NORAD_CAT_ID":"51134","ELEMENT_SET_NO":"999","RA_OF_ASC_NODE":"220.9127","MEAN_MOTION_DOT":"-0.00325981","BSTAR":"-0.00589780000000","MEAN_ANOMALY":"184.3486","INCLINATION":"53.2157","COUNTRY_CODE":"US","TLE_LINE2":"2 51134  53.2157 220.9127 0001802  37.3343 184.3486 15.50261272  3644","OBJECT_NAME":"STARLINK-3183","LAUNCH_DATE":"2022-01-19","GP_ID":"201094432","RCS_SIZE":"LARGE","MEAN_MOTION":"15.50261272","ARG_OF_PERICENTER":"37.3343","EPOCH":"2022-04-12T22:00:00.999936"},{"TLE_LINE1":"1 51135U 22005AH  22102.91667824 -.00636810  00000-0 -24233-1 0  9995","DECAY_DATE":null,"PERIAPSIS":"478.683","OBJECT_ID":"2022-005AH","OBJECT_TYPE":"PAYLOAD","PERIOD":"94.202","FILE":"3398892","MEAN_ELEMENT_THEORY":"SGP4","SITE":"AFETR","EPHEMERIS_TYPE":"0","APOAPSIS":"481.088","SEMIMAJOR_AXIS":"6858.021","REV_AT_EPOCH":"363","MEAN_MOTION_DDOT":"0.0000000000000","TIME_SYSTEM":"UTC","CENTER_NAME":"EARTH","ECCENTRICITY":"0.00017540","CLASSIFICATION_TYPE":"U","RCS_SIZE":"LARGE","GP_ID":"201095684","OBJECT_NAME":"STARLINK-3363","LAUNCH_DATE":"2022-01-19","TLE_LINE2":"2 51135  53.2166 225.0729 0001754  38.1867 218.8664 15.28637785  3636","EPOCH":"2022-04-12T22:00:00.999936","ARG_OF_PERICENTER":"38.1867","MEAN_MOTION":"15.28637785","MEAN_MOTION_DOT":"-0.00636810","RA_OF_ASC_NODE":"225.0729","NORAD_CAT_ID":"51135","ELEMENT_SET_NO":"999","REF_FRAME":"TEME","COUNTRY_CODE":"US","INCLINATION":"53.2166","MEAN_ANOMALY":"218.8664","BSTAR":"-0.02423300000000"},{"TIME_SYSTEM":"UTC","CENTER_NAME":"EARTH","ECCENTRICITY":"0.00019330","CLASSIFICATION_TYPE":"U","SITE":"AFETR","EPHEMERIS_TYPE":"0","MEAN_ELEMENT_THEORY":"SGP4","APOAPSIS":"510.979","REV_AT_EPOCH":"361","SEMIMAJOR_AXIS":"6887.783","MEAN_MOTION_DDOT":"0.0000000000000","OBJECT_TYPE":"PAYLOAD","PERIOD":"94.815","FILE":"3398892","DECAY_DATE":null,"TLE_LINE1":"1 51136U 22005AJ  22102.91667824 -.00680190  00000-0 -34568-1 0  9998","OBJECT_ID":"2022-005AJ","PERIAPSIS":"508.316","COUNTRY_CODE":"US","INCLINATION":"53.2173","MEAN_ANOMALY":"205.6147","BSTAR":"-0.03456800000000","MEAN_MOTION_DOT":"-0.00680190","RA_OF_ASC_NODE":"224.3775","ELEMENT_SET_NO":"999","NORAD_CAT_ID":"51136","REF_FRAME":"TEME","EPOCH":"2022-04-12T22:00:00.999936","ARG_OF_PERICENTER":"34.4419","MEAN_MOTION":"15.18740561","RCS_SIZE":"LARGE","GP_ID":"201095434","OBJECT_NAME":"STARLINK-3253","LAUNCH_DATE":"2022-01-19","TLE_LINE2":"2 51136  53.2173 224.3775 0001933  34.4419 205.6147 15.18740561  3613"},{"PERIOD":"94.177","OBJECT_TYPE":"PAYLOAD","FILE":"3398892","TLE_LINE1":"1 51137U 22005AK  22102.91667824 -.00657313  00000-0 -24771-1 0  9995","PERIAPSIS":"477.565","DECAY_DATE":null,"OBJECT_ID":"2022-005AK","CENTER_NAME":"EARTH","ECCENTRICITY":"0.00016750","TIME_SYSTEM":"UTC","CLASSIFICATION_TYPE":"U","APOAPSIS":"479.863","REV_AT_EPOCH":"363","SEMIMAJOR_AXIS":"6856.849","MEAN_ELEMENT_THEORY":"SGP4","SITE":"AFETR","EPHEMERIS_TYPE":"0","MEAN_MOTION_DDOT":"0.0000000000000","EPOCH":"2022-04-12T22:00:00.999936","MEAN_MOTION":"15.29029562","ARG_OF_PERICENTER":"43.4112","GP_ID":"201094182","RCS_SIZE":"LARGE","TLE_LINE2":"2 51137  53.2169 225.0693 0001675  43.4112 255.7398 15.29029562  3638","LAUNCH_DATE":"2022-01-19","OBJECT_NAME":"STARLINK-3180","COUNTRY_CODE":"US","BSTAR":"-0.02477100000000","INCLINATION":"53.2169","MEAN_ANOMALY":"255.7398","RA_OF_ASC_NODE":"225.0693","MEAN_MOTION_DOT":"-0.00657313","REF_FRAME":"TEME","NORAD_CAT_ID":"51137","ELEMENT_SET_NO":"999"},{"PERIOD":"94.194","OBJECT_TYPE":"PAYLOAD","FILE":"3398892","DECAY_DATE":null,"TLE_LINE1":"1 51138U 22005AL  22102.91667824 -.00634430  00000-0 -24044-1 0  9994","OBJECT_ID":"2022-005AL","PERIAPSIS":"478.316","ECCENTRICITY":"0.00017500","CENTER_NAME":"EARTH","TIME_SYSTEM":"UTC","CLASSIFICATION_TYPE":"U","REV_AT_EPOCH":"363","SEMIMAJOR_AXIS":"6857.651","APOAPSIS":"480.716","EPHEMERIS_TYPE":"0","SITE":"AFETR","MEAN_ELEMENT_THEORY":"SGP4","MEAN_MOTION_DDOT":"0.0000000000000","EPOCH":"2022-04-12T22:00:00.999936","MEAN_MOTION":"15.28761415","ARG_OF_PERICENTER":"28.3736","GP_ID":"201094933","RCS_SIZE":"LARGE","TLE_LINE2":"2 51138  53.2164 225.0727 0001750  28.3736 242.6897 15.28761415  3638","LAUNCH_DATE":"2022-01-19","OBJECT_NAME":"STARLINK-3177","COUNTRY_CODE":"US","BSTAR":"-0.02404400000000","MEAN_ANOMALY":"242.6897","INCLINATION":"53.2164","RA_OF_ASC_NODE":"225.0727","MEAN_MOTION_DOT":"-0.00634430","REF_FRAME":"TEME","NORAD_CAT_ID":"51138","ELEMENT_SET_NO":"999"},{"FILE":"3398892","OBJECT_TYPE":"PAYLOAD","PERIOD":"94.166","PERIAPSIS":"477.074","TLE_LINE1":"1 51139U 22005AM  22102.91667824 -.00547917  00000-0 -20504-1 0  9995","DECAY_DATE":null,"OBJECT_ID":"2022-005AM","CLASSIFICATION_TYPE":"U","TIME_SYSTEM":"UTC","ECCENTRICITY":"0.00016050","CENTER_NAME":"EARTH","MEAN_MOTION_DDOT":"0.0000000000000","MEAN_ELEMENT_THEORY":"SGP4","SITE":"AFETR","EPHEMERIS_TYPE":"0","SEMIMAJOR_AXIS":"6856.310","REV_AT_EPOCH":"363","APOAPSIS":"479.275","ARG_OF_PERICENTER":"46.9222","MEAN_MOTION":"15.29209960","EPOCH":"2022-04-12T22:00:00.999936","LAUNCH_DATE":"2022-01-19","OBJECT_NAME":"STARLINK-3172","TLE_LINE2":"2 51139  53.2169 225.0680 0001605  46.9222 280.0127 15.29209960  3632","RCS_SIZE":"LARGE","GP_ID":"201095184","MEAN_ANOMALY":"280.0127","INCLINATION":"53.2169","BSTAR":"-0.02050400000000","COUNTRY_CODE":"US","ELEMENT_SET_NO":"999","NORAD_CAT_ID":"51139","REF_FRAME":"TEME","MEAN_MOTION_DOT":"-0.00547917","RA_OF_ASC_NODE":"225.0680"},{"MEAN_MOTION":"15.28885043","ARG_OF_PERICENTER":"36.3769","EPOCH":"2022-04-12T22:00:00.999936","TLE_LINE2":"2 51140  53.2167 225.0721 0001805  36.3769 248.8508 15.28885043  3635","LAUNCH_DATE":"2022-01-19","OBJECT_NAME":"STARLINK-3175","GP_ID":"201095935","RCS_SIZE":"LARGE","BSTAR":"-0.02395000000000","MEAN_ANOMALY":"248.8508","INCLINATION":"53.2167","COUNTRY_CODE":"US","REF_FRAME":"TEME","ELEMENT_SET_NO":"999","NORAD_CAT_ID":"51140","RA_OF_ASC_NODE":"225.0721","MEAN_MOTION_DOT":"-0.00634375","FILE":"3398892","PERIOD":"94.186","OBJECT_TYPE":"PAYLOAD","OBJECT_ID":"2022-005AN","TLE_LINE1":"1 51140U 22005AN  22102.91667824 -.00634375  00000-0 -23950-1 0  9990","DECAY_DATE":null,"PERIAPSIS":"477.908","CLASSIFICATION_TYPE":"U","ECCENTRICITY":"0.00018050","CENTER_NAME":"EARTH","TIME_SYSTEM":"UTC","MEAN_MOTION_DDOT":"0.0000000000000","SEMIMAJOR_AXIS":"6857.281","REV_AT_EPOCH":"363","APOAPSIS":"480.384","EPHEMERIS_TYPE":"0","SITE":"AFETR","MEAN_ELEMENT_THEORY":"SGP4"},{"EPOCH":"2022-04-12T22:00:00.999936","ARG_OF_PERICENTER":"42.6076","MEAN_MOTION":"15.29403574","RCS_SIZE":"LARGE","GP_ID":"201094683","LAUNCH_DATE":"2022-01-19","OBJECT_NAME":"STARLINK-3179","TLE_LINE2":"2 51141  53.2169 225.0667 0001443  42.6076 311.9527 15.29403574  3635","COUNTRY_CODE":"US","MEAN_ANOMALY":"311.9527","INCLINATION":"53.2169","BSTAR":"-0.01713200000000","MEAN_MOTION_DOT":"-0.00465669","RA_OF_ASC_NODE":"225.0667","NORAD_CAT_ID":"51141","ELEMENT_SET_NO":"999","REF_FRAME":"TEME","OBJECT_TYPE":"PAYLOAD","PERIOD":"94.154","FILE":"3398892","PERIAPSIS":"476.607","TLE_LINE1":"1 51141U 22005AP  22102.91667824 -.00465669  00000-0 -17132-1 0  9994","DECAY_DATE":null,"OBJECT_ID":"2022-005AP","TIME_SYSTEM":"UTC","ECCENTRICITY":"0.00014430","CENTER_NAME":"EARTH","CLASSIFICATION_TYPE":"U","EPHEMERIS_TYPE":"0","SITE":"AFETR","MEAN_ELEMENT_THEORY":"SGP4","SEMIMAJOR_AXIS":"6855.731","REV_AT_EPOCH":"363","APOAPSIS":"478.585","MEAN_MOTION_DDOT":"0.0000000000000"},{"EPOCH":"2022-04-12T22:00:00.999936","MEAN_MOTION":"15.49711336","ARG_OF_PERICENTER":"49.4465","GP_ID":"201094433","RCS_SIZE":"LARGE","TLE_LINE2":"2 51142  53.2172 222.2438 0001478  49.4465 238.0275 15.49711336  3673","OBJECT_NAME":"STARLINK-3369","LAUNCH_DATE":"2022-01-19","COUNTRY_CODE":"US","BSTAR":"-0.00649980000000","MEAN_ANOMALY":"238.0275","INCLINATION":"53.2172","RA_OF_ASC_NODE":"222.2438","MEAN_MOTION_DOT":"-0.00351138","REF_FRAME":"TEME","NORAD_CAT_ID":"51142","ELEMENT_SET_NO":"999","PERIOD":"92.921","OBJECT_TYPE":"PAYLOAD","FILE":"3398892","DECAY_DATE":null,"TLE_LINE1":"1 51142U 22005AQ  22102.91667824 -.00351138  00000-0 -64998-2 0  9993","OBJECT_ID":"2022-005AQ","PERIAPSIS":"416.567","ECCENTRICITY":"0.00014780","CENTER_NAME":"EARTH","TIME_SYSTEM":"UTC","CLASSIFICATION_TYPE":"U","REV_AT_EPOCH":"367","SEMIMAJOR_AXIS":"6795.707","APOAPSIS":"418.576","SITE":"AFETR","MEAN_ELEMENT_THEORY":"SGP4","EPHEMERIS_TYPE":"0","MEAN_MOTION_DDOT":"0.0000000000000"},{"GP_ID":"201095685","RCS_SIZE":"LARGE","TLE_LINE2":"2 51143  53.2172 234.1535 0002325  38.5864 187.8673 15.08861155  3570","LAUNCH_DATE":"2022-01-19","OBJECT_NAME":"STARLINK-3184","EPOCH":"2022-04-12T22:00:00.999936","MEAN_MOTION":"15.08861155","ARG_OF_PERICENTER":"38.5864","RA_OF_ASC_NODE":"234.1535","MEAN_MOTION_DOT":"0.00053147","REF_FRAME":"TEME","NORAD_CAT_ID":"51143","ELEMENT_SET_NO":"999","COUNTRY_CODE":"US","BSTAR":"0.00333040000000","MEAN_ANOMALY":"187.8673","INCLINATION":"53.2172","OBJECT_ID":"2022-005AR","TLE_LINE1":"1 51143U 22005AR  22102.91667824  .00053147  00000-0  33304-2 0  9998","DECAY_DATE":null,"PERIAPSIS":"538.072","PERIOD":"95.436","OBJECT_TYPE":"PAYLOAD","FILE":"3398892","SEMIMAJOR_AXIS":"6917.816","REV_AT_EPOCH":"357","APOAPSIS":"541.289","SITE":"AFETR","EPHEMERIS_TYPE":"0","MEAN_ELEMENT_THEORY":"SGP4","MEAN_MOTION_DDOT":"0.0000000000000","ECCENTRICITY":"0.00023250","CENTER_NAME":"EARTH","TIME_SYSTEM":"UTC","CLASSIFICATION_TYPE":"U"}];
